{"type": "FeatureCollection", "features": [ {"type": "Feature", "properties": {"norad_id": 39574, "name": "GPM-CORE", "group": "resource", "lat": 15.699358619878906, "lon": 23.032873690578345, "alt_km": 431.85317829047835, "timestamp": "2025-12-13T08:49:15.350499+00:00", "meta": {"OBJECT_NAME": "GPM-CORE", "OBJECT_ID": "2014-009C", "EPOCH": "2025-12-13T00:20:55.419648", "MEAN_MOTION": 15.44471184, "ECCENTRICITY": 0.00098252, "INCLINATION": 64.9736, "RA_OF_ASC_NODE": 211.7601, "ARG_OF_PERICENTER": 245.2747, "MEAN_ANOMALY": 114.7372, "EPHEMERIS_TYPE": 0, "CLASSIFICATION_TYPE": "U", "NORAD_CAT_ID": 39574, "ELEMENT_SET_NO": 999, "REV_AT_EPOCH": 66905, "BSTAR": 0.00024919516, "MEAN_MOTION_DOT": 0.00011388, "MEAN_MOTION_DDOT": 0}, "tle": {"line1": "1 39574U 14009C   25347.01453032  .00011388  00000+0  24920-3 0  9991", "line2": "2 39574  64.9736 211.7601 0009825 245.2747 114.7372 15.44471184669058"}}, "geometry": {"type": "Point", "coordinates": [23.032873690578345, 15.699358619878906]}}, {"type": "Feature", "properties": {"norad_id": 39634, "name": "SENTINEL-1A", "group": "resource", "lat": -0.04304522064212981, "lon": 172.59345664076562, "alt_km": 698.8599735459056, "timestamp": "2025-12-13T08:49:15.350509+00:00", "meta": {"OBJECT_NAME": "SENTINEL-1A", "OBJECT_ID": "2014-016A", "EPOCH": "2025-12-12T23:46:13.965024", "MEAN_MOTION": 14.59201274, "ECCENTRICITY": 0.00012456, "INCLINATION": 98.1807, "RA_OF_ASC_NODE": 352.2281, "ARG_OF_PERICENTER": 83.4741, "MEAN_ANOMALY": 276.66, "EPHEMERIS_TYPE": 0, "CLASSIFICATION_TYPE": "U", "NORAD_CAT_ID": 39634, "ELEMENT_SET_NO": 999, "REV_AT_EPOCH": 62286, "BSTAR": 0.00010505557, "MEAN_MOTION_DOT": 4.5e-06, "MEAN_MOTION_DDOT": 0}, "tle": {"line1": "1 39634U 14016A   25346.99043941  .00000450  00000+0  10506-3 0  9999", "line2": "2 39634  98.1807 352.2281 0001245  83.4741 276.6600 14.59201274622868"}}, "geometry": {"type": "Point", "coordinates": [172.59345664076562, -0.04304522064212981]}}, {"type": "Feature", "properties": {"norad_id": 39731, "name": "KAZEOSAT 1", "group": "resource", "lat": 62.96749317286666, "lon": -104.02581330418552, "alt_km": 744.7957582370191, "timestamp": "2025-12-13T08:49:15.350520+00:00", "meta": {"OBJECT_NAME": "KAZEOSAT 1", "OBJECT_ID": "2014-024A", "EPOCH": "2025-12-12T23:57:35.483040", "MEAN_MOTION": 14.42063169, "ECCENTRICITY": 0.00011187, "INCLINATION": 98.3428, "RA_OF_ASC_NODE": 58.8993, "ARG_OF_PERICENTER": 94.71, "MEAN_ANOMALY": 265.4217, "EPHEMERIS_TYPE": 0, "CLASSIFICATION_TYPE": "U", "NORAD_CAT_ID": 39731, "ELEMENT_SET_NO": 999, "REV_AT_EPOCH": 61172, "BSTAR": 0.00016671068, "MEAN_MOTION_DOT": 5.05e-06, "MEAN_MOTION_DDOT": 0}, "tle": {"line1": "1 39731U 14024A   25346.99832735  .00000505  00000+0  16671-3 0  9993", "line2": "2 39731  98.3428  58.8993 0001118  94.7100 265.4217 14.42063169611723"}}, "geometry": {"type": "Point", "coordinates": [-104.02581330418552, 62.96749317286666]}}, {"type": "Feature", "properties": {"norad_id": 39766, "name": "ALOS-2", "group": "resource", "lat": 80.23437155753369, "lon": 28.204323910778374, "alt_km": 622.6023787517788, "timestamp": "2025-12-13T08:49:15.350530+00:00", "meta": {"OBJECT_NAME": "ALOS-2", "OBJECT_ID": "2014-029A", "EPOCH": "2025-12-12T12:57:47.930112", "MEAN_MOTION": 14.79474197, "ECCENTRICITY": 0.00014, "INCLINATION": 97.9217, "RA_OF_ASC_NODE": 81.3886, "ARG_OF_PERICENTER": 99.6977, "MEAN_ANOMALY": 260.4393, "EPHEMERIS_TYPE": 0, "CLASSIFICATION_TYPE": "U", "NORAD_CAT_ID": 39766, "ELEMENT_SET_NO": 999, "REV_AT_EPOCH": 62398, "BSTAR": 0.00062702076, "MEAN_MOTION_DOT": 4.634e-05, "MEAN_MOTION_DDOT": 0}, "tle": {"line1": "1 39766U 14029A   25346.54013808  .00004634  00000+0  62702-3 0  9992", "line2": "2 39766  97.9217  81.3886 0001400  99.6977 260.4393 14.79474197623982"}}, "geometry": {"type": "Point", "coordinates": [28.204323910778374, 80.23437155753369]}}, {"type": "Feature", "properties": {"norad_id": 40010, "name": "KAZEOSAT 2", "group": "resource", "lat": 7.105680373894986, "lon": -169.29768747460636, "alt_km": 620.220093826526, "timestamp": "2025-12-13T08:49:15.350540+00:00", "meta": {"OBJECT_NAME": "KAZEOSAT 2", "OBJECT_ID": "2014-033A", "EPOCH": "2025-12-13T00:42:13.755168", "MEAN_MOTION": 14.85169937, "ECCENTRICITY": 0.00076442, "INCLINATION": 97.5508, "RA_OF_ASC_NODE": 191.3291, "ARG_OF_PERICENTER": 205.622, "MEAN_ANOMALY": 154.4618, "EPHEMERIS_TYPE": 0, "CLASSIFICATION_TYPE": "U", "NORAD_CAT_ID": 40010, "ELEMENT_SET_NO": 999, "REV_AT_EPOCH": 62132, "BSTAR": 0.0001608303, "MEAN_MOTION_DOT": 1.328e-05, "MEAN_MOTION_DDOT": 0}, "tle": {"line1": "1 40010U 14033A   25347.02932587  .00001328  00000+0  16083-3 0  9997", "line2": "2 40010  97.5508 191.3291 0007644 205.6220 154.4618 14.85169937621321"}}, "geometry": {"type": "Point", "coordinates": [-169.29768747460636, 7.105680373894986]}}, {"type": "Feature", "properties": {"norad_id": 40011, "name": "HODOYOSHI-4", "group": "resource", "lat": 77.50365241922728, "lon": 32.930113481297646, "alt_km": 600.8836572276223, "timestamp": "2025-12-13T08:49:15.350551+00:00", "meta": {"OBJECT_NAME": "HODOYOSHI-4", "OBJECT_ID": "2014-033B", "EPOCH": "2025-12-13T00:17:57.338880", "MEAN_MOTION": 14.87483366, "ECCENTRICITY": 0.00232394, "INCLINATION": 97.5416, "RA_OF_ASC_NODE": 175.8828, "ARG_OF_PERICENTER": 199.6037, "MEAN_ANOMALY": 160.4289, "EPHEMERIS_TYPE": 0, "CLASSIFICATION_TYPE": "U", "NORAD_CAT_ID": 40011, "ELEMENT_SET_NO": 999, "REV_AT_EPOCH": 62112, "BSTAR": 0.00030274335, "MEAN_MOTION_DOT": 2.705e-05, "MEAN_MOTION_DDOT": 0}, "tle": {"line1": "1 40011U 14033B   25347.01246920  .00002705  00000+0  30274-3 0  9994", "line2": "2 40011  97.5416 175.8828 0023239 199.6037 160.4289 14.87483366621125"}}, "geometry": {"type": "Point", "coordinates": [32.930113481297646, 77.50365241922728]}}, {"type": "Feature", "properties": {"norad_id": 40013, "name": "DEIMOS-2", "group": "resource", "lat": -82.38784004953726, "lon": -45.90042772172831, "alt_km": 596.5596467820505, "timestamp": "2025-12-13T08:49:15.350562+00:00", "meta": {"OBJECT_NAME": "DEIMOS-2", "OBJECT_ID": "2014-033D", "EPOCH": "2025-12-12T23:34:23.040768", "MEAN_MOTION": 14.92974987, "ECCENTRICITY": 7.912e-05, "INCLINATION": 97.606, "RA_OF_ASC_NODE": 222.7744, "ARG_OF_PERICENTER": 104.5248, "MEAN_ANOMALY": 255.6059, "EPHEMERIS_TYPE": 0, "CLASSIFICATION_TYPE": "U", "NORAD_CAT_ID": 40013, "ELEMENT_SET_NO": 999, "REV_AT_EPOCH": 60993, "BSTAR": 0.00033932058, "MEAN_MOTION_DOT": 3.471e-05, "MEAN_MOTION_DDOT": 0}, "tle": {"line1": "1 40013U 14033D   25346.98221112  .00003471  00000+0  33932-3 0  9992", "line2": "2 40013  97.6060 222.7744 0000791 104.5248 255.6059 14.92974987609936"}}, "geometry": {"type": "Point", "coordinates": [-45.90042772172831, -82.38784004953726]}}, {"type": "Feature", "properties": {"norad_id": 40015, "name": "HODOYOSHI-3", "group": "resource", "lat": 19.56097575513159, "lon": 150.4486674097835, "alt_km": 629.8228644966466, "timestamp": "2025-12-13T08:49:15.350572+00:00", "meta": {"OBJECT_NAME": "HODOYOSHI-3", "OBJECT_ID": "2014-033F", "EPOCH": "2025-12-12T23:01:39.934272", "MEAN_MOTION": 14.84808116, "ECCENTRICITY": 0.0031914, "INCLINATION": 97.6198, "RA_OF_ASC_NODE": 152.7849, "ARG_OF_PERICENTER": 247.2139, "MEAN_ANOMALY": 112.5704, "EPHEMERIS_TYPE": 0, "CLASSIFICATION_TYPE": "U", "NORAD_CAT_ID": 40015, "ELEMENT_SET_NO": 999, "REV_AT_EPOCH": 61998, "BSTAR": 0.00031566809, "MEAN_MOTION_DOT": 2.651e-05, "MEAN_MOTION_DDOT": 0}, "tle": {"line1": "1 40015U 14033F   25346.95948998  .00002651  00000+0  31567-3 0  9990", "line2": "2 40015  97.6198 152.7849 0031914 247.2139 112.5704 14.84808116619988"}}, "geometry": {"type": "Point", "coordinates": [150.4486674097835, 19.56097575513159]}}, {"type": "Feature", "properties": {"norad_id": 40053, "name": "SPOT 7", "group": "resource", "lat": 47.30997696105608, "lon": 40.55764216293471, "alt_km": 685.7319068346997, "timestamp": "2025-12-13T08:49:15.350582+00:00", "meta": {"OBJECT_NAME": "SPOT 7", "OBJECT_ID": "2014-034A", "EPOCH": "2025-12-13T00:22:56.344224", "MEAN_MOTION": 14.60735052, "ECCENTRICITY": 0.00015888, "INCLINATION": 98.0903, "RA_OF_ASC_NODE": 49.0846, "ARG_OF_PERICENTER": 87.7231, "MEAN_ANOMALY": 272.4152, "EPHEMERIS_TYPE": 0, "CLASSIFICATION_TYPE": "U", "NORAD_CAT_ID": 40053, "ELEMENT_SET_NO": 999, "REV_AT_EPOCH": 60995, "BSTAR": 0.00023415326, "MEAN_MOTION_DOT": 1.096e-05, "MEAN_MOTION_DDOT": 0}, "tle": {"line1": "1 40053U 14034A   25347.01592991  .00001096  00000+0  23415-3 0  9994", "line2": "2 40053  98.0903  49.0846 0001588  87.7231 272.4152 14.60735052609959"}}, "geometry": {"type": "Point", "coordinates": [40.55764216293471, 47.30997696105608]}}, {"type": "Feature", "properties": {"norad_id": 40072, "name": "SKYSAT-B", "group": "resource", "lat": 42.33363326257379, "lon": -76.59284587979772, "alt_km": 603.9423742396984, "timestamp": "2025-12-13T08:49:15.350592+00:00", "meta": {"OBJECT_NAME": "SKYSAT-B", "OBJECT_ID": "2014-037D", "EPOCH": "2025-12-12T19:42:42.141312", "MEAN_MOTION": 14.87328681, "ECCENTRICITY": 0.00061586, "INCLINATION": 98.3606, "RA_OF_ASC_NODE": 290.5316, "ARG_OF_PERICENTER": 149.7913, "MEAN_ANOMALY": 210.3657, "EPHEMERIS_TYPE": 0, "CLASSIFICATION_TYPE": "U", "NORAD_CAT_ID": 40072, "ELEMENT_SET_NO": 999, "REV_AT_EPOCH": 61825, "BSTAR": 0.00031262497, "MEAN_MOTION_DOT": 2.763e-05, "MEAN_MOTION_DDOT": 0}, "tle": {"line1": "1 40072U 14037D   25346.82132108  .00002763  00000+0  31262-3 0  9997", "line2": "2 40072  98.3606 290.5316 0006158 149.7913 210.3657 14.87328681618251"}}, "geometry": {"type": "Point", "coordinates": [-76.59284587979772, 42.33363326257379]}}]}